{"type":"FeatureCollection","name":"test_region_small_48px_v3.2-3.7ensemble_0.50_2023-01-01_2023-12-31","crs":{"type":"name","properties":{"name":"urn:ogc:def:crs:OGC:1.3:CRS84"}},"features":[{"type":"Feature","properties":{"mean":0.85304576,"preds":[0.7125303,0.8393822,0.9374481,0.82241696,0.82062477,0.9858725]},"geometry":{"type":"Polygon","coordinates":[[[-62.461297565357484,5.19893709792974],[-62.4613015611316,5.194233091651286],[-62.45660952257384,5.19422907008868],[-62.45660549200089,5.198933072705862],[-62.461297565357484,5.19893709792974]]]}},{"type":"Feature","properties":{"mean":0.99661642,"preds":[0.9999975,0.9997527,0.9999918,0.99854565,0.9814945,0.9999164]},"geometry":{"type":"Polygon","coordinates":[[[-62.46129956370284,5.19658509487835],[-62.461303557643774,5.191881088248619],[-62.456611536473474,5.191877068516631],[-62.45660750774965,5.196581071485116],[-62.46129956370284,5.19658509487835]]]}},{"type":"Feature","properties":{"mean":0.99499017,"preds":[1,0.9999829,0.9999973,0.992654,0.9776579,0.99964905]},"geometry":{"type":"Polygon","coordinates":[[[-62.4613015611316,5.194233091651286],[-62.4613055532394,5.189529084670435],[-62.45661354944857,5.189525066769048],[-62.45660952257384,5.19422907008868],[-62.4613015611316,5.194233091651286]]]}},{"type":"Feature","properties":{"mean":0.99998719,"preds":[1,0.9999985,0.9999999,0.99992573,0.9999997,0.9999996]},"geometry":{"type":"Polygon","coordinates":[[[-62.461303557643774,5.191881088248619],[-62.46130754791848,5.187177080916806],[-62.45661556149914,5.187173064846011],[-62.456611536473474,5.191877068516631],[-62.461303557643774,5.191881088248619]]]}},{"type":"Feature","properties":{"mean":0.99995309,"preds":[0.99999696,0.99992275,0.9999786,0.99991107,0.9999982,0.9999113]},"geometry":{"type":"Polygon","coordinates":[[[-62.4613055532394,5.189529084670435],[-62.461309541681025,5.184825076987813],[-62.4566175726252,5.184821062747596],[-62.45661354944857,5.189525066769048],[-62.4613055532394,5.189529084670435]]]}},{"type":"Feature","properties":{"mean":0.71075988,"preds":[0.49258944,0.88929474,0.9304547,0.63736486,0.38251284,0.93234265]},"geometry":{"type":"Polygon","coordinates":[[[-62.45895152821888,5.198935089680722],[-62.45895554139244,5.194231085228936],[-62.4542635046798,5.194227046230536],[-62.454259456707476,5.198931047005177],[-62.45895152821888,5.198935089680722]]]}},{"type":"Feature","properties":{"mean":0.99999911,"preds":[1,1,1,0.99999744,0.99999756,1]},"geometry":{"type":"Polygon","coordinates":[[[-62.458953535265955,5.19658308754267],[-62.458957546598356,5.191879082739593],[-62.454265527273144,5.191875045579748],[-62.45426148115793,5.196579046705707],[-62.458953535265955,5.19658308754267]]]}},{"type":"Feature","properties":{"mean":1,"preds":[1,1,1,1,1,1]},"geometry":{"type":"Polygon","coordinates":[[[-62.45895554139244,5.194231085228936],[-62.45895955088371,5.189527080074726],[-62.45426754893795,5.189523044753419],[-62.4542635046798,5.194227046230536],[-62.45895554139244,5.194231085228936]]]}},{"type":"Feature","properties":{"mean":1,"preds":[1,1,1,1,1,1]},"geometry":{"type":"Polygon","coordinates":[[[-62.458957546598356,5.191879082739593],[-62.458961554248546,5.187175077234408],[-62.45426956967423,5.187171043751631],[-62.454265527273144,5.191875045579748],[-62.458957546598356,5.191879082739593]]]}},{"type":"Feature","properties":{"mean":0.99999613,"preds":[1,0.99999356,0.99999994,0.9999833,0.9999996,0.9999999]},"geometry":{"type":"Polygon","coordinates":[[[-62.45895955088371,5.189527080074726],[-62.45896355669286,5.184823074218721],[-62.45427158948202,5.184819042574456],[-62.45426754893795,5.189523044753419],[-62.45895955088371,5.189527080074726]]]}},{"type":"Feature","properties":{"mean":0.91235977,"preds":[0.996519,0.9441609,0.9868813,0.78869987,0.75803524,0.999862]},"geometry":{"type":"Polygon","coordinates":[[[-62.458961554248546,5.187175077234408],[-62.45896555821668,5.182471071027743],[-62.45427360836132,5.182467041221981],[-62.45426956967423,5.187171043751631],[-62.458961554248546,5.187175077234408]]]}},{"type":"Feature","properties":{"mean":0.99997205,"preds":[1,1,1,0.9998566,0.99997574,1]},"geometry":{"type":"Polygon","coordinates":[[[-62.45660750774965,5.196581071485116],[-62.456611536473474,5.191877068516631],[-62.451919519001336,5.191873013928961],[-62.45191545549476,5.196577013204454],[-62.45660750774965,5.196581071485116]]]}},{"type":"Feature","properties":{"mean":1,"preds":[1,1,1,1,1,1]},"geometry":{"type":"Polygon","coordinates":[[[-62.45660952257384,5.19422907008868],[-62.45661354944857,5.189525066769048],[-62.45192154935583,5.189521014027856],[-62.451917487714326,5.19422501365452],[-62.45660952257384,5.19422907008868]]]}},{"type":"Feature","properties":{"mean":0.99999994,"preds":[1,1,1,0.99999994,0.99999934,1]},"geometry":{"type":"Polygon","coordinates":[[[-62.456611536473474,5.191877068516631],[-62.45661556149914,5.187173064846011],[-62.451923578777816,5.187169013951283],[-62.451919519001336,5.191873013928961],[-62.456611536473474,5.191877068516631]]]}},{"type":"Feature","properties":{"mean":0.84790522,"preds":[0.9999402,0.99880815,0.9996481,0.99390113,0.0954704,0.9996633]},"geometry":{"type":"Polygon","coordinates":[[[-62.45661354944857,5.189525066769048],[-62.4566175726252,5.184821062747596],[-62.45192560726733,5.184817013699319],[-62.45192154935583,5.189521014027856],[-62.45661354944857,5.189525066769048]]]}},{"type":"Feature","properties":{"mean":0.78618091,"preds":[0.9943998,0.95836127,0.99235654,0.13783251,0.6807625,0.9533729]},"geometry":{"type":"Polygon","coordinates":[[[-62.45426148115793,5.196579046705707],[-62.454265527273144,5.191875045579748],[-62.44957351166207,5.19187097356429],[-62.44956943076416,5.196574970981381],[-62.45426148115793,5.196579046705707]]]}},{"type":"Feature","properties":{"mean":0.98905629,"preds":[0.99999994,0.9998707,0.99999905,0.935727,0.99874294,0.9999974]},"geometry":{"type":"Polygon","coordinates":[[[-62.4542635046798,5.194227046230536],[-62.45426754893795,5.189523044753419],[-62.44957555070623,5.189518974592375],[-62.44957147168138,5.194222972360651],[-62.4542635046798,5.194227046230536]]]}},{"type":"Feature","properties":{"mean":0.94134116,"preds":[0.999997,0.9992872,0.999957,0.98978925,0.6590209,0.9999959]},"geometry":{"type":"Polygon","coordinates":[[[-62.454265527273144,5.191875045579748],[-62.45426956967423,5.187171043751631],[-62.4495775888139,5.187166975444985],[-62.44957351166207,5.19187097356429],[-62.454265527273144,5.191875045579748]]]}},{"type":"Feature","properties":{},"geometry":{"coordinates":[[[-62.4787074782633,5.209250491831497],[-62.4787074782633,5.1554548399129345],[-62.428846131668436,5.1554548399129345],[-62.428846131668436,5.209250491831497],[-62.4787074782633,5.209250491831497]]],"type":"Polygon"}}]}