{"type":"FeatureCollection","name":"test_region_48px_v3.2-3.7ensemble_0.50_2023-01-01_2023-12-31","crs":{"type":"name","properties":{"name":"urn:ogc:def:crs:OGC:1.3:CRS84"}},"features":[{"type":"Feature","properties":{"mean":0.70653057,"preds":[0.27065074,0.19887668,0.9903823,0.827599,0.9520191,0.99965566]},"geometry":{"type":"Polygon","coordinates":[[[-62.52036125669466,5.130414104255764],[-62.52036476721742,5.12571004447272],[-62.515673188532396,5.125706509042432],[-62.51566964367453,5.130410565564168],[-62.52036125669466,5.130414104255764]]]}},{"type":"Feature","properties":{"mean":0.62226325,"preds":[0.13412336,0.21369101,0.8922168,0.9075361,0.5905789,0.99543345]},"geometry":{"type":"Polygon","coordinates":[[[-62.51332561982466,5.128056755949591],[-62.513329180194596,5.12335270072399],[-62.50863762361939,5.123349115332572],[-62.50863402893047,5.128053167249275],[-62.51332561982466,5.128056755949591]]]}},{"type":"Feature","properties":{"mean":0.6649918,"preds":[0.21161087,0.28369153,0.86808217,0.9230536,0.7194162,0.98409665]},"geometry":{"type":"Polygon","coordinates":[[[-62.51332740042348,5.125704728423377],[-62.51333095913801,5.121000672851511],[-62.50863941971034,5.120997089114524],[-62.508635826692775,5.125701141377514],[-62.51332740042348,5.125704728423377]]]}},{"type":"Feature","properties":{"mean":0.55161023,"preds":[0.40923807,0.008811963,0.90068245,0.93961334,0.19061895,0.8606967]},"geometry":{"type":"Polygon","coordinates":[[[-62.565271881249316,5.161022813852356],[-62.56527508216683,5.15631872895835],[-62.56058324978732,5.156315503856509],[-62.56058001432613,5.161019585792936],[-62.565271881249316,5.161022813852356]]]}},{"type":"Feature","properties":{"mean":0.78105944,"preds":[0.8497039,0.025279496,0.9935912,0.9787188,0.8765462,0.9625168]},"geometry":{"type":"Polygon","coordinates":[[[-62.56527348207783,5.158670771492428],[-62.5652766815163,5.1539666862502],[-62.56058486639667,5.153963462627132],[-62.56058163243047,5.158667544911803],[-62.56527348207783,5.158670771492428]]]}},{"type":"Feature","properties":{"mean":0.98614126,"preds":[0.9867572,0.9738305,0.9999683,0.995664,0.9607077,0.9999199]},"geometry":{"type":"Polygon","coordinates":[[[-62.5629275568824,5.158669162531337],[-62.562930773584746,5.153965078763918],[-62.558238959956064,5.153961837839854],[-62.55823570872606,5.158665918633842],[-62.5629275568824,5.158669162531337]]]}},{"type":"Feature","properties":{"mean":0.97128195,"preds":[0.9722545,0.94454664,0.9998829,0.9845349,0.92689437,0.99957794]},"geometry":{"type":"Polygon","coordinates":[[[-62.56292916560532,5.156317120734665],[-62.562932380820676,5.151613036619171],[-62.55824058444386,5.151609797181807],[-62.55823733471681,5.156313878323893],[-62.56292916560532,5.156317120734665]]]}},{"type":"Feature","properties":{"mean":0.77647281,"preds":[0.7183973,0.55836123,0.979707,0.9577933,0.46322545,0.98135275]},"geometry":{"type":"Polygon","coordinates":[[[-62.56058001432613,5.161019585792936],[-62.56058324978732,5.156315503856509],[-62.55589142039778,5.156312244136831],[-62.555888150393024,5.161016323083935],[-62.56058001432613,5.161019585792936]]]}},{"type":"Feature","properties":{"mean":0.98238176,"preds":[0.9660159,0.97364146,0.9999743,0.997751,0.95694584,0.9999617]},"geometry":{"type":"Polygon","coordinates":[[[-62.56058163243047,5.158667544911803],[-62.56058486639667,5.153963462627132],[-62.55589305426694,5.153960204402099],[-62.55588978577314,5.158664283697468],[-62.56058163243047,5.158667544911803]]]}},{"type":"Feature","properties":{"mean":0.78214425,"preds":[0.81702274,0.8344537,0.9949265,0.9759048,0.08411798,0.9864398]},"geometry":{"type":"Polygon","coordinates":[[[-62.56058324978732,5.156315503856509],[-62.56058648225854,5.151611421223752],[-62.555894687380636,5.151608164493355],[-62.55589142039778,5.156312244136831],[-62.56058324978732,5.156315503856509]]]}},{"type":"Feature","properties":{"mean":0.90544981,"preds":[0.97429293,0.87629884,0.99948555,0.9204849,0.6697707,0.99236596]},"geometry":{"type":"Polygon","coordinates":[[[-62.55823570872606,5.158665918633842],[-62.558238959956064,5.153961837839854],[-62.553547149333255,5.153958562313882],[-62.5535438635757,5.158662640102694],[-62.55823570872606,5.158665918633842]]]}},{"type":"Feature","properties":{"mean":0.89344072,"preds":[0.9952134,0.9425206,0.99910706,0.97319454,0.46160597,0.98900294]},"geometry":{"type":"Polygon","coordinates":[[[-62.55823733471681,5.156313878323893],[-62.55824058444386,5.151609797181807],[-62.55354879107286,5.151606523158407],[-62.55354550683421,5.156310601295337],[-62.55823733471681,5.156313878323893]]]}},{"type":"Feature","properties":{"mean":0.87520772,"preds":[0.98993236,0.88374823,0.99888754,0.8420582,0.57162446,0.9649961]},"geometry":{"type":"Polygon","coordinates":[[[-62.55588978577314,5.158664283697468],[-62.55589305426694,5.153960204402099],[-62.55120124515904,5.153956911575214],[-62.55119794213774,5.158660987849533],[-62.55588978577314,5.158664283697468]]]}},{"type":"Feature","properties":{"mean":0.97978401,"preds":[0.997793,0.9122405,0.99997723,0.9811502,0.9876356,0.99990755]},"geometry":{"type":"Polygon","coordinates":[[[-62.55589142039778,5.156312244136831],[-62.555894687380636,5.151608164493355],[-62.55120289552452,5.151604873176976],[-62.55119959403012,5.156308949799425],[-62.55589142039778,5.156312244136831]]]}},{"type":"Feature","properties":{"mean":0.71118611,"preds":[0.8919588,0.089315735,0.8668867,0.95654875,0.4934788,0.9689276]},"geometry":{"type":"Polygon","coordinates":[[[-62.555894687380636,5.151608164493355],[-62.55589795134173,5.146904084154137],[-62.55120619396522,5.146900795858744],[-62.55120289552452,5.151604873176976],[-62.555894687380636,5.151608164493355]]]}},{"type":"Feature","properties":{"mean":0.67881036,"preds":[0.85611016,0.14989227,0.7887575,0.9038293,0.40864366,0.9656293]},"geometry":{"type":"Polygon","coordinates":[[[-62.555896319738906,5.149256124410673],[-62.55589958218914,5.14455204372382],[-62.55120784204048,5.144548756938903],[-62.55120454512658,5.149252834604794],[-62.555896319738906,5.149256124410673]]]}},{"type":"Feature","properties":{"mean":0.60134405,"preds":[0.08492553,0.041204005,0.998885,0.9021256,0.5827156,0.99820876]},"geometry":{"type":"Polygon","coordinates":[[[-62.55354550683421,5.156310601295337],[-62.55354879107286,5.151606523158407],[-62.5488570007396,5.151603214549078],[-62.54885368198948,5.156307289649107],[-62.55354550683421,5.156310601295337]]]}},{"type":"Feature","properties":{"mean":0.64808166,"preds":[0.9386069,0.8387816,0.45418736,0.4154141,0.3489887,0.89251107]},"geometry":{"type":"Polygon","coordinates":[[[-62.5015094140596,5.239316317693786],[-62.50151314046306,5.234612287363337],[-62.496820771982925,5.234608535828251],[-62.49681701050559,5.239312562769314],[-62.5015094140596,5.239316317693786]]]}},{"type":"Feature","properties":{"mean":0.95851177,"preds":[0.97054636,0.9516703,0.98757213,0.91849464,0.92318875,0.9995981]},"geometry":{"type":"Polygon","coordinates":[[[-62.50151127768553,5.236964302617021],[-62.50151500239221,5.232260271932813],[-62.49682265143704,5.232256522092403],[-62.49681889167244,5.236960549387248],[-62.50151127768553,5.236964302617021]]]}},{"type":"Feature","properties":{"mean":0.57925898,"preds":[0.25559792,0.33480167,0.74452853,0.7282346,0.5816899,0.83070135]},"geometry":{"type":"Polygon","coordinates":[[[-62.50151314046306,5.234612287363337],[-62.50151686347301,5.229908256325527],[-62.496824530034814,5.22990450817978],[-62.496820771982925,5.234608535828251],[-62.50151314046306,5.234612287363337]]]}},{"type":"Feature","properties":{"mean":0.77567011,"preds":[0.7186864,0.8942791,0.88296264,0.74387664,0.42361733,0.9905985]},"geometry":{"type":"Polygon","coordinates":[[[-62.49916321185639,5.23931444462865],[-62.49916695579681,5.234610415988926],[-62.49447458902541,5.234606646881329],[-62.49447081001117,5.239310672115792],[-62.49916321185639,5.23931444462865]]]}},{"type":"Feature","properties":{"mean":0.98165518,"preds":[0.96293575,0.9756066,0.9963693,0.9635144,0.9916867,0.9998183]},"geometry":{"type":"Polygon","coordinates":[[[-62.49916508425279,5.23696243039725],[-62.49916882648846,5.232258401403755],[-62.49447647724198,5.232254633998772],[-62.494472699948474,5.23695865958703],[-62.49916508425279,5.23696243039725]]]}},{"type":"Feature","properties":{"mean":0.62781662,"preds":[0.49464062,0.35962248,0.9952106,0.5883063,0.33125147,0.9978686]},"geometry":{"type":"Polygon","coordinates":[[[-62.48978222569543,5.234602842628808],[-62.48978603630999,5.229898820123879],[-62.485093711495,5.229894984195278],[-62.485089865838816,5.23459900323149],[-62.48978222569543,5.234602842628808]]]}},{"type":"Feature","properties":{"mean":0.54768294,"preds":[0.93944407,0.5774174,0.96112996,0.065538086,0.096448064,0.64612013]},"geometry":{"type":"Polygon","coordinates":[[[-62.48978413143687,5.232250831464739],[-62.4897879403148,5.227546808606305],[-62.48509563300863,5.227542974412042],[-62.485091789105056,5.232246993801787],[-62.48978413143687,5.232250831464739]]]}},{"type":"Feature","properties":{"mean":0.66725546,"preds":[0.45029593,0.1954244,0.9817212,0.64724034,0.77303547,0.95581573]},"geometry":{"type":"Polygon","coordinates":[[[-62.48743604533095,5.234600927323241],[-62.487439873466336,5.229896906548701],[-62.48274755039994,5.229893053063623],[-62.482743687223,5.234597070353571],[-62.48743604533095,5.234600927323241]]]}},{"type":"Feature","properties":{"mean":0.85304576,"preds":[0.7125303,0.8393822,0.9374481,0.82241696,0.82062477,0.9858725]},"geometry":{"type":"Polygon","coordinates":[[[-62.461297565357484,5.19893709792974],[-62.4613015611316,5.194233091651286],[-62.45660952257384,5.19422907008868],[-62.45660549200089,5.198933072705862],[-62.461297565357484,5.19893709792974]]]}},{"type":"Feature","properties":{"mean":0.99661642,"preds":[0.9999975,0.9997527,0.9999918,0.99854565,0.9814945,0.9999164]},"geometry":{"type":"Polygon","coordinates":[[[-62.46129956370284,5.19658509487835],[-62.461303557643774,5.191881088248619],[-62.456611536473474,5.191877068516631],[-62.45660750774965,5.196581071485116],[-62.46129956370284,5.19658509487835]]]}},{"type":"Feature","properties":{"mean":0.99499017,"preds":[1,0.9999829,0.9999973,0.992654,0.9776579,0.99964905]},"geometry":{"type":"Polygon","coordinates":[[[-62.4613015611316,5.194233091651286],[-62.4613055532394,5.189529084670435],[-62.45661354944857,5.189525066769048],[-62.45660952257384,5.19422907008868],[-62.4613015611316,5.194233091651286]]]}},{"type":"Feature","properties":{"mean":0.99998719,"preds":[1,0.9999985,0.9999999,0.99992573,0.9999997,0.9999996]},"geometry":{"type":"Polygon","coordinates":[[[-62.461303557643774,5.191881088248619],[-62.46130754791848,5.187177080916806],[-62.45661556149914,5.187173064846011],[-62.456611536473474,5.191877068516631],[-62.461303557643774,5.191881088248619]]]}},{"type":"Feature","properties":{"mean":0.99995309,"preds":[0.99999696,0.99992275,0.9999786,0.99991107,0.9999982,0.9999113]},"geometry":{"type":"Polygon","coordinates":[[[-62.4613055532394,5.189529084670435],[-62.461309541681025,5.184825076987813],[-62.4566175726252,5.184821062747596],[-62.45661354944857,5.189525066769048],[-62.4613055532394,5.189529084670435]]]}},{"type":"Feature","properties":{"mean":0.71075988,"preds":[0.49258944,0.88929474,0.9304547,0.63736486,0.38251284,0.93234265]},"geometry":{"type":"Polygon","coordinates":[[[-62.45895152821888,5.198935089680722],[-62.45895554139244,5.194231085228936],[-62.4542635046798,5.194227046230536],[-62.454259456707476,5.198931047005177],[-62.45895152821888,5.198935089680722]]]}},{"type":"Feature","properties":{"mean":0.99999911,"preds":[1,1,1,0.99999744,0.99999756,1]},"geometry":{"type":"Polygon","coordinates":[[[-62.458953535265955,5.19658308754267],[-62.458957546598356,5.191879082739593],[-62.454265527273144,5.191875045579748],[-62.45426148115793,5.196579046705707],[-62.458953535265955,5.19658308754267]]]}},{"type":"Feature","properties":{"mean":1,"preds":[1,1,1,1,1,1]},"geometry":{"type":"Polygon","coordinates":[[[-62.45895554139244,5.194231085228936],[-62.45895955088371,5.189527080074726],[-62.45426754893795,5.189523044753419],[-62.4542635046798,5.194227046230536],[-62.45895554139244,5.194231085228936]]]}},{"type":"Feature","properties":{"mean":1,"preds":[1,1,1,1,1,1]},"geometry":{"type":"Polygon","coordinates":[[[-62.458957546598356,5.191879082739593],[-62.458961554248546,5.187175077234408],[-62.45426956967423,5.187171043751631],[-62.454265527273144,5.191875045579748],[-62.458957546598356,5.191879082739593]]]}},{"type":"Feature","properties":{"mean":0.99999613,"preds":[1,0.99999356,0.99999994,0.9999833,0.9999996,0.9999999]},"geometry":{"type":"Polygon","coordinates":[[[-62.45895955088371,5.189527080074726],[-62.45896355669286,5.184823074218721],[-62.45427158948202,5.184819042574456],[-62.45426754893795,5.189523044753419],[-62.45895955088371,5.189527080074726]]]}},{"type":"Feature","properties":{"mean":0.91235977,"preds":[0.996519,0.9441609,0.9868813,0.78869987,0.75803524,0.999862]},"geometry":{"type":"Polygon","coordinates":[[[-62.458961554248546,5.187175077234408],[-62.45896555821668,5.182471071027743],[-62.45427360836132,5.182467041221981],[-62.45426956967423,5.187171043751631],[-62.458961554248546,5.187175077234408]]]}},{"type":"Feature","properties":{"mean":0.99997205,"preds":[1,1,1,0.9998566,0.99997574,1]},"geometry":{"type":"Polygon","coordinates":[[[-62.45660750774965,5.196581071485116],[-62.456611536473474,5.191877068516631],[-62.451919519001336,5.191873013928961],[-62.45191545549476,5.196577013204454],[-62.45660750774965,5.196581071485116]]]}},{"type":"Feature","properties":{"mean":1,"preds":[1,1,1,1,1,1]},"geometry":{"type":"Polygon","coordinates":[[[-62.45660952257384,5.19422907008868],[-62.45661354944857,5.189525066769048],[-62.45192154935583,5.189521014027856],[-62.451917487714326,5.19422501365452],[-62.45660952257384,5.19422907008868]]]}},{"type":"Feature","properties":{"mean":0.99999994,"preds":[1,1,1,0.99999994,0.99999934,1]},"geometry":{"type":"Polygon","coordinates":[[[-62.456611536473474,5.191877068516631],[-62.45661556149914,5.187173064846011],[-62.451923578777816,5.187169013951283],[-62.451919519001336,5.191873013928961],[-62.456611536473474,5.191877068516631]]]}},{"type":"Feature","properties":{"mean":0.84790522,"preds":[0.9999402,0.99880815,0.9996481,0.99390113,0.0954704,0.9996633]},"geometry":{"type":"Polygon","coordinates":[[[-62.45661354944857,5.189525066769048],[-62.4566175726252,5.184821062747596],[-62.45192560726733,5.184817013699319],[-62.45192154935583,5.189521014027856],[-62.45661354944857,5.189525066769048]]]}},{"type":"Feature","properties":{"mean":0.78618091,"preds":[0.9943998,0.95836127,0.99235654,0.13783251,0.6807625,0.9533729]},"geometry":{"type":"Polygon","coordinates":[[[-62.45426148115793,5.196579046705707],[-62.454265527273144,5.191875045579748],[-62.44957351166207,5.19187097356429],[-62.44956943076416,5.196574970981381],[-62.45426148115793,5.196579046705707]]]}},{"type":"Feature","properties":{"mean":0.98905629,"preds":[0.99999994,0.9998707,0.99999905,0.935727,0.99874294,0.9999974]},"geometry":{"type":"Polygon","coordinates":[[[-62.4542635046798,5.194227046230536],[-62.45426754893795,5.189523044753419],[-62.44957555070623,5.189518974592375],[-62.44957147168138,5.194222972360651],[-62.4542635046798,5.194227046230536]]]}},{"type":"Feature","properties":{"mean":0.94134116,"preds":[0.999997,0.9992872,0.999957,0.98978925,0.6590209,0.9999959]},"geometry":{"type":"Polygon","coordinates":[[[-62.454265527273144,5.191875045579748],[-62.45426956967423,5.187171043751631],[-62.4495775888139,5.187166975444985],[-62.44957351166207,5.19187097356429],[-62.454265527273144,5.191875045579748]]]}},{"type":"Feature","properties":{"mean":0.68142158,"preds":[0.07073061,0.114764504,0.9964659,0.92650926,0.9802335,0.9998259]},"geometry":{"type":"Polygon","coordinates":[[[-62.638332810525384,5.203767589220021],[-62.63833549568589,5.199063468698338],[-62.6336433061188,5.199060760490831],[-62.63364058612324,5.203764878549139],[-62.638332810525384,5.203767589220021]]]}},{"type":"Feature","properties":{"mean":0.61540669,"preds":[0.32114333,0.077255435,0.99618226,0.82881707,0.5774698,0.89157206]},"geometry":{"type":"Polygon","coordinates":[[[-62.63598669801461,5.203766238252002],[-62.635989400592656,5.199062118958036],[-62.631297212268336,5.199059393296729],[-62.63129447485529,5.203763510111445],[-62.63598669801461,5.203766238252002]]]}},{"type":"Feature","properties":{"mean":0.59505099,"preds":[0.3017297,0.0318489,0.96963876,0.8735179,0.7219936,0.6715766]},"geometry":{"type":"Polygon","coordinates":[[[-62.63598804961333,5.201414178692733],[-62.63599075095258,5.196710059047985],[-62.63129858003379,5.196707334626288],[-62.6312958438755,5.201411451791807],[-62.63598804961333,5.201414178692733]]]}},{"type":"Feature","properties":{"mean":0.676902,"preds":[0.9456123,0.020802256,0.99716765,0.83213377,0.27801797,0.9876778]},"geometry":{"type":"Polygon","coordinates":[[[-62.62191424575647,5.196701781108033],[-62.62191704897923,5.191997668295025],[-62.61722492047139,5.191994841773099],[-62.6172220824618,5.196698952011658],[-62.62191424575647,5.196701781108033]]]}},{"type":"Feature","properties":{"mean":0.6515643,"preds":[0.9285305,0.05130778,0.909191,0.8499054,0.30445,0.86600125]},"geometry":{"type":"Polygon","coordinates":[[[-62.621915647689505,5.194349724789141],[-62.62191844962565,5.189645611625767],[-62.61722633849924,5.189642786391054],[-62.61722350179224,5.194346896979996],[-62.621915647689505,5.194349724789141]]]}},{"type":"Feature","properties":{"mean":0.54524475,"preds":[0.73791087,0.024114368,0.9943943,0.52380437,0.022798881,0.96844596]},"geometry":{"type":"Polygon","coordinates":[[[-62.619568163785466,5.196700370921273],[-62.61957098440166,5.191996259391521],[-62.6148788571924,5.191993415439774],[-62.61487600178945,5.196697524379201],[-62.619568163785466,5.196700370921273]]]}},{"type":"Feature","properties":{"mean":0.55935991,"preds":[0.26672837,0.0072010253,0.9782507,0.88825935,0.2313808,0.9843392]},"geometry":{"type":"Polygon","coordinates":[[[-62.6172220824618,5.196698952011658],[-62.61722492047139,5.191994841773099],[-62.6125327945687,5.191991980391555],[-62.61252992177239,5.196696088023913],[-62.6172220824618,5.196698952011658]]]}},{"type":"Feature","properties":{"mean":0.54600102,"preds":[0.0058619496,0.01072936,0.96657205,0.7607824,0.70136607,0.830694]},"geometry":{"type":"Polygon","coordinates":[[[-62.60549168569297,5.196691726621182],[-62.605494610669176,5.191987622957654],[-62.600802491419074,5.191984674427477],[-62.600799531656385,5.196688775405427],[-62.60549168569297,5.196691726621182]]]}},{"type":"Feature","properties":{"mean":0.63343149,"preds":[0.7984975,0.6540531,0.5228723,0.65241617,0.22743337,0.9453165]},"geometry":{"type":"Polygon","coordinates":[[[-62.46609204199251,5.075912907450829],[-62.46609590795823,5.071208879380765],[-62.46140476452714,5.071204987597727],[-62.461400864597145,5.0759090120396],[-62.46609204199251,5.075912907450829]]]}},{"type":"Feature","properties":{"mean":0.88870043,"preds":[0.85472053,0.90801394,0.8529047,0.77923137,0.94840896,0.9889231]},"geometry":{"type":"Polygon","coordinates":[[[-62.46374450999739,5.078262976876935],[-62.46374839476875,5.073558950960192],[-62.45905723618698,5.07355504033435],[-62.459053317435455,5.078259062607007],[-62.46374450999739,5.078262976876935]]]}},{"type":"Feature","properties":{"mean":0.99688345,"preds":[0.99810106,0.9877161,0.99965054,0.9990335,0.99680215,0.99999744]},"geometry":{"type":"Polygon","coordinates":[[[-62.463746452838954,5.075910964004382],[-62.46375033578682,5.071206937744446],[-62.45905919418317,5.071203028940628],[-62.45905527727109,5.075907051556502],[-62.463746452838954,5.075910964004382]]]}},{"type":"Feature","properties":{"mean":0.99138016,"preds":[0.9902144,0.9770375,0.99580383,0.99898773,0.98642486,0.99981254]},"geometry":{"type":"Polygon","coordinates":[[[-62.46374839476875,5.073558950960192],[-62.463752275893164,5.068854924357221],[-62.459061151259675,5.068851017375415],[-62.45905723618698,5.07355504033435],[-62.46374839476875,5.073558950960192]]]}},{"type":"Feature","properties":{"mean":0.71630865,"preds":[0.45082298,0.8815506,0.5410473,0.6627946,0.93287253,0.8287641]},"geometry":{"type":"Polygon","coordinates":[[[-62.46375033578682,5.071206937744446],[-62.4637542150878,5.066502910798596],[-62.45906310741648,5.06649900563879],[-62.45905919418317,5.071203028940628],[-62.46375033578682,5.071206937744446]]]}},{"type":"Feature","properties":{"mean":0.80024379,"preds":[0.9185522,0.629087,0.9341176,0.92505777,0.41056788,0.9840802]},"geometry":{"type":"Polygon","coordinates":[[[-62.461400864597145,5.0759090120396],[-62.46140476452714,5.071204987597727],[-62.4567136247589,5.071201061773164],[-62.45670969086474,5.075905082555106],[-62.461400864597145,5.0759090120396]]]}},{"type":"Feature","properties":{"mean":0.97882599,"preds":[0.9877657,0.9699981,0.9744401,0.97862715,0.9648376,0.99728674]},"geometry":{"type":"Polygon","coordinates":[[[-62.46140281502,5.073556999904445],[-62.46140671311857,5.068852975119525],[-62.45671559032045,5.068849051124906],[-62.45671165827367,5.073553072249922],[-62.46140281502,5.073556999904445]]]}},{"type":"Feature","properties":{"mean":0.94102067,"preds":[0.93152994,0.95302385,0.8463056,0.9185065,0.9988256,0.99793255]},"geometry":{"type":"Polygon","coordinates":[[[-62.46140476452714,5.071204987597727],[-62.461408660794305,5.066500962469918],[-62.456717554958324,5.066497040305231],[-62.4567136247589,5.071201061773164],[-62.46140476452714,5.071204987597727]]]}},{"type":"Feature","properties":{"mean":0.79486537,"preds":[0.5915831,0.44039983,0.8669679,0.9584455,0.91353935,0.9982564]},"geometry":{"type":"Polygon","coordinates":[[[-62.46140671311857,5.068852975119525],[-62.46141060755436,5.064148949648982],[-62.45671951867256,5.064145029314218],[-62.45671559032045,5.068849051124906],[-62.46140671311857,5.068852975119525]]]}},{"type":"Feature","properties":{"mean":0.50668067,"preds":[0.008489509,0.11341232,0.23337668,0.7830392,0.9323351,0.96943134]},"geometry":{"type":"Polygon","coordinates":[[[-62.46141060755436,5.064148949648982],[-62.46141449832753,5.059444923493445],[-62.45672344333013,5.059441006818483],[-62.45671951867256,5.064145029314218],[-62.46141060755436,5.064148949648982]]]}},{"type":"Feature","properties":{"mean":0.89353985,"preds":[0.86122876,0.6825505,0.95378196,0.91560477,0.94857,0.9995028]},"geometry":{"type":"Polygon","coordinates":[[[-62.459061151259675,5.068851017375415],[-62.459065062653636,5.064146993730832],[-62.4543739756151,5.064143056399154],[-62.454370030304894,5.068847076368016],[-62.459061151259675,5.068851017375415]]]}},{"type":"Feature","properties":{"mean":0.80777031,"preds":[0.6087292,0.92121327,0.33264202,0.9914191,0.99672997,0.9958883]},"geometry":{"type":"Polygon","coordinates":[[[-62.459065062653636,5.064146993730832],[-62.45906897036902,5.059442969401231],[-62.45437791721482,5.059439035745221],[-62.4543739756151,5.064143056399154],[-62.459065062653636,5.064146993730832]]]}},{"type":"Feature","properties":{"mean":0.98215652,"preds":[0.9953177,0.9834233,0.91668606,0.9999191,0.9978792,0.99971396]},"geometry":{"type":"Polygon","coordinates":[[[-62.45906701697114,5.061794981651619],[-62.459070922847275,5.057090956979743],[-62.4543798866233,5.05708702516155],[-62.45437594687877,5.061791046157782],[-62.45906701697114,5.061794981651619]]]}},{"type":"Feature","properties":{"mean":0.9835903,"preds":[0.9985164,0.9669209,0.95071507,0.9947575,0.9949846,0.9956474]},"geometry":{"type":"Polygon","coordinates":[[[-62.45672148146315,5.061793018151942],[-62.4567254042735,5.05708899531392],[-62.45203436990067,5.057085046522647],[-62.45203041322198,5.061789065669157],[-62.45672148146315,5.061793018151942]]]}},{"type":"Feature","properties":{"mean":0.60758722,"preds":[0.8249209,0.005316692,0.8411824,0.8813805,0.25947675,0.8332462]},"geometry":{"type":"Polygon","coordinates":[[[-62.68325921238812,5.225322268934085],[-62.68326157379939,5.220618129645819],[-62.678569202266914,5.220615745866748],[-62.678566805873615,5.225319882995588],[-62.68325921238812,5.225322268934085]]]}},{"type":"Feature","properties":{"mean":0.65921926,"preds":[0.84225833,0.0056186966,0.84502244,0.9629059,0.34531498,0.95419514]},"geometry":{"type":"Polygon","coordinates":[[[-62.68326039336328,5.222970199377984],[-62.68326275369647,5.218266059737664],[-62.67857039964304,5.218263677038295],[-62.67856800434378,5.222967814519206],[-62.68326039336328,5.222970199377984]]]}},{"type":"Feature","properties":{"mean":0.79477149,"preds":[0.83048517,0.89663094,0.77462894,0.77774245,0.64498216,0.8441598]},"geometry":{"type":"Polygon","coordinates":[[[-62.496929209898646,5.097105899914609],[-62.49693286787727,5.092401851865793],[-62.49224154805657,5.092398168586487],[-62.49223785596926,5.097102213215623],[-62.496929209898646,5.097105899914609]]]}},{"type":"Feature","properties":{"mean":0.90150714,"preds":[0.72563916,0.8759879,0.96939063,0.920464,0.9366858,0.98087555]},"geometry":{"type":"Polygon","coordinates":[[[-62.49458353250424,5.09710406084224],[-62.494587207537215,5.092400014499296],[-62.48989588943932,5.092396314127384],[-62.489892180297716,5.097100357034779],[-62.49458353250424,5.09710406084224]]]}},{"type":"Feature","properties":{"mean":0.88710052,"preds":[0.9178478,0.7848727,0.9891075,0.8280755,0.8056303,0.9970696]},"geometry":{"type":"Polygon","coordinates":[[[-62.69027094228966,5.279785226097983],[-62.690273275639875,5.275081091824845],[-62.68558049394356,5.275078736176587],[-62.68557812524133,5.27978286833758],[-62.69027094228966,5.279785226097983]]]}},{"type":"Feature","properties":{"mean":0.8977229,"preds":[0.90779024,0.736528,0.9967751,0.9505853,0.79570675,0.998952]},"geometry":{"type":"Polygon","coordinates":[[[-62.6902721092284,5.277433159050347],[-62.69027444152406,5.272729024421551],[-62.685581677491776,5.272726669829352],[-62.685579309860074,5.277430802346021],[-62.6902721092284,5.277433159050347]]]}},{"type":"Feature","properties":{"mean":0.78858495,"preds":[0.86529773,0.8478062,0.99681747,0.9534896,0.10376594,0.9643329]},"geometry":{"type":"Polygon","coordinates":[[[-62.690273275639875,5.275081091824845],[-62.690275606880974,5.270376956840542],[-62.68558286050474,5.270374603304396],[-62.68558049394356,5.275078736176587],[-62.690273275639875,5.275081091824845]]]}},{"type":"Feature","properties":{"mean":0.92112708,"preds":[0.9756841,0.8730449,0.9991706,0.83280444,0.8462942,0.99976397]},"geometry":{"type":"Polygon","coordinates":[[[-62.687924533499846,5.279784051649442],[-62.687926884526085,5.275079918428407],[-62.683234103896304,5.275077545069391],[-62.68323171751808,5.279781676162402],[-62.687924533499846,5.279784051649442]]]}},{"type":"Feature","properties":{"mean":0.90934581,"preds":[0.9290234,0.8504357,0.9910768,0.81244123,0.87385744,0.9992399]},"geometry":{"type":"Polygon","coordinates":[[[-62.6879257092786,5.277431985127861],[-62.68792805924229,5.272727851551157],[-62.683235296276514,5.272725479256143],[-62.68323291097683,5.277429610704838],[-62.6879257092786,5.277431985127861]]]}},{"type":"Feature","properties":{"mean":0.90460032,"preds":[0.9948856,0.99659884,0.9997752,0.9956229,0.4468683,0.9938511]},"geometry":{"type":"Polygon","coordinates":[[[-62.57689642455422,5.317350932898353],[-62.57689963481818,5.312646864241247],[-62.57220663007896,5.312643630017333],[-62.572203384209566,5.317347695794859],[-62.57689642455422,5.317350932898353]]]}},{"type":"Feature","properties":{"mean":0.81743699,"preds":[0.96444345,0.96981823,0.9984674,0.9902055,0.050372094,0.93131554]},"geometry":{"type":"Polygon","coordinates":[[[-62.57454990401967,5.317349318809747],[-62.57455313208635,5.31264525158846],[-62.5698601288,5.312641999527879],[-62.56985686512794,5.317346063853705],[-62.57454990401967,5.317349318809747]]]}},{"type":"Feature","properties":{"mean":0.51817995,"preds":[0.17163798,0.2302557,0.66183615,0.7363329,0.39360213,0.91541517]},"geometry":{"type":"Polygon","coordinates":[[[-62.54877402445292,5.267938404532942],[-62.54877741608137,5.263234346129322],[-62.54408480122445,5.263230930101111],[-62.54408137432678,5.267934985435049],[-62.54877402445292,5.267938404532942]]]}},{"type":"Feature","properties":{"mean":0.52245599,"preds":[0.023426577,0.14099567,0.9691937,0.02337107,0.9783477,0.99940133]},"geometry":{"type":"Polygon","coordinates":[[[-62.546429404021374,5.265584671057875],[-62.54643281174029,5.26088061382968],[-62.54174021605412,5.260877181674633],[-62.54173677308203,5.265581235817291],[-62.546429404021374,5.265584671057875]]]}},{"type":"Feature","properties":{"mean":0.77416801,"preds":[0.52755433,0.21480894,0.9678428,0.9672209,0.9678122,0.9997694]},"geometry":{"type":"Polygon","coordinates":[[[-62.54408308816365,5.265582957856965],[-62.54408651350918,5.260878902167569],[-62.53939391937912,5.26087545235089],[-62.53939045878047,5.265579504938869],[-62.54408308816365,5.265582957856965]]]}},{"type":"Feature","properties":{"mean":0.67906189,"preds":[0.44018474,0.17054123,0.93156147,0.8843948,0.6530136,0.9946754]},"geometry":{"type":"Polygon","coordinates":[[[-62.54173677308203,5.265581235817291],[-62.54174021605412,5.260877181674633],[-62.537047623488164,5.260873714196352],[-62.53704414526299,5.265577765221715],[-62.54173677308203,5.265581235817291]]]}},{"type":"Feature","properties":{"mean":0.64841413,"preds":[0.0687258,0.2520891,0.8463315,0.9178878,0.8065475,0.9989029]},"geometry":{"type":"Polygon","coordinates":[[[-62.57695874774026,5.225259612930243],[-62.57696190160759,5.220555530349635],[-62.57226958747695,5.220552352490675],[-62.57226639862969,5.225256432192515],[-62.57695874774026,5.225259612930243]]]}},{"type":"Feature","properties":{"mean":0.65717113,"preds":[0.13399823,0.37729666,0.7323525,0.8923832,0.8128763,0.99411994]},"geometry":{"type":"Polygon","coordinates":[[[-62.57696032503389,5.222907571728073],[-62.57696347746137,5.218203488795005],[-62.57227118080872,5.218200312375417],[-62.57226799341727,5.222904392429736],[-62.57696032503389,5.222907571728073]]]}},{"type":"Feature","properties":{"mean":0.50802207,"preds":[0.018976536,0.10942354,0.92981917,0.017143255,0.97293335,0.9998368]},"geometry":{"type":"Polygon","coordinates":[[[-62.54642966626325,5.265222820527097],[-62.5464330737446,5.260518763244231],[-62.541740480768894,5.26051533132653],[-62.541737038036814,5.265219385523862],[-62.54642966626325,5.265222820527097]]]}},{"type":"Feature","properties":{"mean":0.92949772,"preds":[0.82170284,0.7654784,0.99271655,0.9991336,0.9979663,0.99998856]},"geometry":{"type":"Polygon","coordinates":[[[-62.544083351761984,5.265221107444555],[-62.544086776868724,5.260517051700488],[-62.53939418544912,5.260513602122378],[-62.53939072509171,5.265217654765033],[-62.544083351761984,5.265221107444555]]]}},{"type":"Feature","properties":{"mean":0.9319461,"preds":[0.81072444,0.79594225,0.9908544,0.9996537,0.99481785,0.9996841]},"geometry":{"type":"Polygon","coordinates":[[[-62.54408506470338,5.26286907966136],[-62.544088488258005,5.258165023562015],[-62.53939591445175,5.258161575534595],[-62.53939245566244,5.26286562853255],[-62.54408506470338,5.26286907966136]]]}},{"type":"Feature","properties":{"mean":0.82914144,"preds":[0.72545767,0.8894569,0.7385125,0.9192701,0.737251,0.96490073]},"geometry":{"type":"Polygon","coordinates":[[[-62.54410555947096,5.234644732426604],[-62.54410896440232,5.229940672076182],[-62.53941660133342,5.229937242656172],[-62.539413161359015,5.23464129990547],[-62.54410555947096,5.234644732426604]]]}},{"type":"Feature","properties":{"mean":0.57335871,"preds":[0.45332953,0.8366341,0.37969756,0.83350873,0.7093212,0.22766116]},"geometry":{"type":"Polygon","coordinates":[[[-62.54410726232457,5.232292702339723],[-62.544110665704196,5.227588641636065],[-62.53941832014484,5.2275852137666],[-62.53941488173815,5.232289271369157],[-62.54410726232457,5.232292702339723]]]}},{"type":"Feature","properties":{"mean":0.9256618,"preds":[0.82896847,0.7531966,0.9880545,0.9956221,0.9887999,0.9993289]},"geometry":{"type":"Polygon","coordinates":[[[-62.541737038036814,5.265219385523862],[-62.541740480768894,5.26051533132653],[-62.537047890913385,5.26051186408804],[-62.53704441293068,5.26521591516808],[-62.541737038036814,5.265219385523862]]]}},{"type":"Feature","properties":{"mean":0.9180401,"preds":[0.767786,0.75205946,0.9916958,0.9989033,0.9980567,0.9997392]},"geometry":{"type":"Polygon","coordinates":[[[-62.54173875979288,5.262867358514041],[-62.541742200964855,5.258163303961418],[-62.53704962872268,5.258159838281557],[-62.53704615231605,5.262863889716908],[-62.54173875979288,5.262867358514041]]]}},{"type":"Feature","properties":{"mean":0.81407708,"preds":[0.5918055,0.9018919,0.85023946,0.921075,0.7228076,0.89664304]},"geometry":{"type":"Polygon","coordinates":[[[-62.54175936002503,5.234643020559306],[-62.541762782477946,5.229938961755476],[-62.53707042097275,5.229935514778288],[-62.537066963476875,5.234639570465116],[-62.54175936002503,5.234643020559306]]]}},{"type":"Feature","properties":{"mean":0.52565295,"preds":[0.5665655,0.7814151,0.6073855,0.6698495,0.47984156,0.048860442]},"geometry":{"type":"Polygon","coordinates":[[[-62.54176107164143,5.232290991245723],[-62.5417644925346,5.227586932088647],[-62.53707214853893,5.227583486669941],[-62.537068692618746,5.232287542710038],[-62.54176107164143,5.232290991245723]]]}},{"type":"Feature","properties":{"mean":0.70616633,"preds":[0.16311404,0.14528556,0.9976481,0.9593442,0.9716981,0.9999084]},"geometry":{"type":"Polygon","coordinates":[[[-62.63869375096638,5.203767796285972],[-62.63869643344727,5.199063675576113],[-62.63400424368969,5.199060970053807],[-62.63400152637375,5.203765088302735],[-62.63869375096638,5.203767796285972]]]}},{"type":"Feature","properties":{"mean":0.6514793,"preds":[0.8116042,0.7728802,0.99887866,0.30425167,0.022447504,0.9988134]},"geometry":{"type":"Polygon","coordinates":[[[-62.58898668019635,5.322425037232732],[-62.58898980172223,5.317720962074344],[-62.58429675127591,5.317717816765349],[-62.58429359410991,5.32242188912596],[-62.58898668019635,5.322425037232732]]]}},{"type":"Feature","properties":{"mean":0.77841115,"preds":[0.8231762,0.81823975,0.9825612,0.9409338,0.12099045,0.98456544]},"geometry":{"type":"Polygon","coordinates":[[[-62.58664013680117,5.322423467646797],[-62.58664327614713,5.317719393883327],[-62.58195022711257,5.317716230720424],[-62.581947052126544,5.322420301670234],[-62.58664013680117,5.322423467646797]]]}},{"type":"Feature","properties":{"mean":0.75745249,"preds":[0.8368174,0.8589767,0.9061335,0.90108573,0.2448015,0.79690015]},"geometry":{"type":"Polygon","coordinates":[[[-62.58627913018737,5.322423225378998],[-62.58628227227487,5.317719151830836],[-62.58158922345822,5.31771598592118],[-62.58158604573065,5.322420056653241],[-62.58627913018737,5.322423225378998]]]}},{"type":"Feature","properties":{"mean":0.55271721,"preds":[0.9317324,0.8973685,0.74160546,0.24541104,0.019027928,0.481158]},"geometry":{"type":"Polygon","coordinates":[[[-62.58393416791277,5.320069609501268],[-62.58393732640334,5.315365536998276],[-62.57924429681566,5.31536235465072],[-62.57924110270107,5.32006642432175],[-62.58393416791277,5.320069609501268]]]}},{"type":"Feature","properties":{"mean":0.75451797,"preds":[0.96386534,0.91914785,0.990224,0.9897403,0.07667695,0.58745337]},"geometry":{"type":"Polygon","coordinates":[[[-62.57689457116795,5.320064818335652],[-62.57689778309453,5.315360750092512],[-62.57220475781761,5.315357514207308],[-62.57220151026716,5.320061579570843],[-62.57689457116795,5.320064818335652]]]}},{"type":"Feature","properties":{"mean":0.94726181,"preds":[0.9990295,0.99773663,0.99996674,0.9986479,0.69086355,0.9973266]},"geometry":{"type":"Polygon","coordinates":[[[-62.57689617749147,5.317712784303798],[-62.576899387977114,5.313008715701875],[-62.57220638050015,5.313005481256456],[-62.57220313440663,5.317709546978796],[-62.57689617749147,5.317712784303798]]]}},{"type":"Feature","properties":{"mean":0.80206031,"preds":[0.9540808,0.94062835,0.9973586,0.99447656,0.082782514,0.8430351]},"geometry":{"type":"Polygon","coordinates":[[[-62.57454965558682,5.317711170104743],[-62.57455288387641,5.313007102938641],[-62.569859877852316,5.313003850655334],[-62.56985661395489,5.31770791492597],[-62.57454965558682,5.317711170104743]]]}},{"type":"Feature","properties":{},"geometry":{"type":"Polygon","coordinates":[[[-62.6388931274414,5.058114374355714],[-62.37247467041015,5.058114374355714],[-62.37247467041015,5.324465526541803],[-62.6388931274414,5.324465526541803],[-62.6388931274414,5.058114374355714]]]}}]}